[{"OBJECT_NAME":"STARLINK-2001","OBJECT_ID":"2021-009BA","EPOCH":"2026-03-09T22:00:01.999584","MEAN_MOTION":15.51033089,"ECCENTRICITY":0.00052542,"INCLINATION":53.0495,"RA_OF_ASC_NODE":20.4797,"ARG_OF_PERICENTER":112.3362,"MEAN_ANOMALY":153.3998,"EPHEMERIS_TYPE":0,"CLASSIFICATION_TYPE":"U","NORAD_CAT_ID":47596,"ELEMENT_SET_NO":999,"REV_AT_EPOCH":554,"BSTAR":0.0019509967,"MEAN_MOTION_DOT":0.00116668,"MEAN_MOTION_DDOT":0},{"OBJECT_NAME":"JILIN-1 GAOFEN 03D51","OBJECT_ID":"2022-155B","EPOCH":"2026-03-09T23:29:49.177824","MEAN_MOTION":15.53426139,"ECCENTRICITY":0.00041755,"INCLINATION":97.6074,"RA_OF_ASC_NODE":206.9827,"ARG_OF_PERICENTER":0.2609,"MEAN_ANOMALY":359.8645,"EPHEMERIS_TYPE":0,"CLASSIFICATION_TYPE":"U","NORAD_CAT_ID":54252,"ELEMENT_SET_NO":999,"REV_AT_EPOCH":18430,"BSTAR":0.00078105929,"MEAN_MOTION_DOT":0.00049603,"MEAN_MOTION_DDOT":0}]
